[{"OBJECT_NAME":"TIANMU-1 19","OBJECT_ID":"2023-208A","EPOCH":"2026-03-09T22:13:36.801696","MEAN_MOTION":15.2984143,"ECCENTRICITY":0.00039292,"INCLINATION":97.4383,"RA_OF_ASC_NODE":184.9132,"ARG_OF_PERICENTER":316.2611,"MEAN_ANOMALY":43.8317,"EPHEMERIS_TYPE":0,"CLASSIFICATION_TYPE":"U","NORAD_CAT_ID":58660,"ELEMENT_SET_NO":999,"REV_AT_EPOCH":12214,"BSTAR":0.00040995676,"MEAN_MOTION_DOT":0.00011779,"MEAN_MOTION_DDOT":0},{"OBJECT_NAME":"STARLINK-35981","OBJECT_ID":"2025-270L","EPOCH":"2026-03-09T23:24:53.936928","MEAN_MOTION":15.275888,"ECCENTRICITY":6.319e-5,"INCLINATION":42.9986,"RA_OF_ASC_NODE":54.2095,"ARG_OF_PERICENTER":156.9275,"MEAN_ANOMALY":203.1605,"EPHEMERIS_TYPE":0,"CLASSIFICATION_TYPE":"U","NORAD_CAT_ID":66598,"ELEMENT_SET_NO":999,"REV_AT_EPOCH":1760,"BSTAR":0.0010634199,"MEAN_MOTION_DOT":0.00029124,"MEAN_MOTION_DDOT":0}]
